NORAD_CAT_ID,OBJECT_NAME,OBJECT_TYPE,EPOCH,MEAN_MOTION,ECCENTRICITY,INCLINATION,RA_OF_ASC_NODE,ARG_OF_PERICENTER,MEAN_ANOMALY,BSTAR,MEAN_MOTION_DOT,MEAN_MOTION_DDOT,TLE_LINE0,TLE_LINE1,TLE_LINE2,SEMIMAJOR_AXIS,PERIOD,APOGEE,PERIGEE,DECAYED
53913.0,STARLINK-5053,PAYLOAD,2023-03-27 07:00:13,15.08859436,0.0001658,53.216,115.2182,68.3104,291.8065,0.00078287,0.000122,0.0,0 STARLINK-5053,1 53913U 22119AD  23086.29182337  .00012200  00000-0  78287-3 0  9990,2 53913  53.2160 115.2182 0001658  68.3104 291.8065 15.08859436 28608,6917.821,95.436,540.833,538.539,0.0
53913.0,STARLINK-5053,PAYLOAD,2023-03-27 11:46:22,15.08865039,0.0001758,53.2178,114.3242,70.3711,289.7471,0.00069962,0.00010872,0.0,0 STARLINK-5053,1 53913U 22119AD  23086.49054049  .00010872  00000-0  69962-3 0  9993,2 53913  53.2178 114.3242 0001758  70.3711 289.7471 15.08865039 29055,6917.804,95.436,540.885,538.453,0.0
53913.0,STARLINK-5053,PAYLOAD,2023-03-28 08:26:22,15.08842104,0.0001456,53.2167,110.4576,118.135,241.9789,-0.00032019,-5.38e-05,0.0,0 STARLINK-5053,1 53913U 22119AD  23087.35165232 -.00005380  00000-0 -32019-3 0  9999,2 53913  53.2167 110.4576 0001456 118.1350 241.9789 15.08842104 28762,6917.874,95.437,540.746,538.732,0.0
53913.0,STARLINK-5053,PAYLOAD,2023-03-28 11:37:09,15.08842822,0.0001018,53.217,109.864,119.9432,240.1661,-0.00015688,-2.784e-05,0.0,0 STARLINK-5053,1 53913U 22119AD  23087.48413329 -.00002784  00000-0 -15688-3 0  9994,2 53913  53.2170 109.8640 0001018 119.9432 240.1661 15.08842822 29201,6917.872,95.437,540.441,539.033,0.0
53913.0,STARLINK-5053,PAYLOAD,2023-03-28 17:58:41,15.0883868,0.0001003,53.2169,108.6754,106.8937,253.2166,-0.00018216,-3.186e-05,0.0,0 STARLINK-5053,1 53913U 22119AD  23087.74909636 -.00003186  00000-0 -18216-3 0  9991,2 53913  53.2169 108.6754 0001003 106.8937 253.2166 15.08838680 29247,6917.884,95.438,540.443,539.056,0.0
53913.0,STARLINK-5053,PAYLOAD,2023-03-29 09:52:33,15.08848682,0.0001309,53.2171,105.7024,93.9956,266.1186,4.5272e-05,4.33e-06,0.0,0 STARLINK-5053,1 53913U 22119AD  23088.41149457  .00000433  00000-0  45272-4 0  9996,2 53913  53.2171 105.7024 0001309  93.9956 266.1186 15.08848682 28926,6917.854,95.437,540.624,538.813,0.0
53913.0,STARLINK-5053,PAYLOAD,2023-03-29 11:27:56,15.08850128,0.000126,53.217,105.405,105.5323,254.5808,8.5249e-05,1.069e-05,0.0,0 STARLINK-5053,1 53913U 22119AD  23088.47773339  .00001069  00000-0  85249-4 0  9998,2 53913  53.2170 105.4050 0001260 105.5323 254.5808 15.08850128 29353,6917.849,95.437,540.586,538.843,0.0
53913.0,STARLINK-5053,PAYLOAD,2023-03-29 17:49:29,15.08841194,0.0001332,53.2162,104.2135,100.6457,259.4686,1.1938e-05,-9.8e-07,0.0,0 STARLINK-5053,1 53913U 22119AD  23088.74269762 -.00000098  00000-0  11938-4 0  9994,2 53913  53.2162 104.2135 0001332 100.6457 259.4686 15.08841194 28977,6917.877,95.437,540.663,538.82,0.0
53913.0,STARLINK-5053,PAYLOAD,2023-03-30 09:43:21,15.08834387,0.000139,53.2185,101.2435,98.9684,261.1465,0.00014158,1.966e-05,0.0,0 STARLINK-5053,1 53913U 22119AD  23089.40510450  .00001966  00000-0  14158-3 0  9991,2 53913  53.2185 101.2435 0001390  98.9684 261.1465 15.08834387 29070,6917.898,95.438,540.724,538.801,0.0
53913.0,STARLINK-5053,PAYLOAD,2023-03-30 12:54:07,15.08835359,0.0001417,53.2186,100.6486,100.1263,259.9889,0.00013489,1.859e-05,0.0,0 STARLINK-5053,1 53913U 22119AD  23089.53758451  .00001859  00000-0  13489-3 0  9997,2 53913  53.2186 100.6486 0001417 100.1263 259.9889 15.08835359 29513,6917.895,95.438,540.74,538.779,0.0
53913.0,STARLINK-5053,PAYLOAD,2023-03-31 09:34:07,15.08851539,0.0001454,53.2172,96.7821,83.9485,276.1673,0.00023221,3.411e-05,0.0,0 STARLINK-5053,1 53913U 22119AD  23090.39869910  .00003411  00000-0  23221-3 0  9997,2 53913  53.2172  96.7821 0001454  83.9485 276.1673 15.08851539 29229,6917.845,95.437,540.716,538.704,0.0
53913.0,STARLINK-5053,PAYLOAD,2023-03-31 17:31:03,15.08843542,0.000119,53.2158,95.2965,89.9002,270.2126,0.00016373,2.319e-05,0.0,0 STARLINK-5053,1 53913U 22119AD  23090.72990174  .00002319  00000-0  16373-3 0  9997,2 53913  53.2158  95.2965 0001190  89.9002 270.2126 15.08843542 29272,6917.87,95.437,540.558,538.911,0.0
53913.0,STARLINK-5053,PAYLOAD,2023-04-01 09:24:54,15.08845631,0.0001353,53.2168,92.3216,91.4161,268.6986,0.00019081,2.751e-05,0.0,0 STARLINK-5053,1 53913U 22119AD  23091.39230183  .00002751  00000-0  19081-3 0  9997,2 53913  53.2168  92.3216 0001353  91.4161 268.6986 15.08845631 29798,6917.863,95.437,540.664,538.792,0.0
53913.0,STARLINK-5053,PAYLOAD,2023-04-01 17:21:50,15.08837038,0.0001344,53.2171,90.8343,89.6175,270.4971,3.522e-05,2.73e-06,0.0,0 STARLINK-5053,1 53913U 22119AD  23091.72350565  .00000273  00000-0  35220-4 0  9992,2 53913  53.2171  90.8343 0001344  89.6175 270.4971 15.08837038 29427,6917.889,95.438,540.684,538.825,0.0
53913.0,STARLINK-5053,PAYLOAD,2023-04-02 09:15:42,15.08843404,0.0001339,53.2164,87.86,92.0133,268.1013,0.00014868,2.079e-05,0.0,0 STARLINK-5053,1 53913U 22119AD  23092.38590497  .00002079  00000-0  14868-3 0  9995,2 53913  53.2164  87.8600 0001339  92.0133 268.1013 15.08843404 29949,6917.87,95.437,540.661,538.809,0.0
53913.0,STARLINK-5053,PAYLOAD,2023-04-02 17:12:37,15.08842904,0.0001275,53.2163,86.3753,81.5537,278.56,0.00016611,2.357e-05,0.0,0 STARLINK-5053,1 53913U 22119AD  23092.71710578  .00002357  00000-0  16611-3 0  9993,2 53913  53.2163  86.3753 0001275  81.5537 278.5600 15.08842904 29997,6917.872,95.437,540.619,538.854,0.0
53913.0,STARLINK-5053,PAYLOAD,2023-04-03 04:20:20,15.08838222,0.0001073,53.2172,84.2932,88.8699,271.2416,0.00032293,4.855e-05,0.0,0 STARLINK-5053,1 53913U 22119AD  23093.18078924  .00004855  00000-0  32293-3 0  9996,2 53913  53.2172  84.2932 0001073  88.8699 271.2416 15.08838222 29643,6917.886,95.438,540.493,539.009,0.0
53913.0,STARLINK-5053,PAYLOAD,2023-04-03 09:06:29,15.08848485,0.0001319,53.2173,83.4005,93.4385,266.6758,0.0002387,3.514e-05,0.0,0 STARLINK-5053,1 53913U 22119AD  23093.37950371  .00003514  00000-0  23870-3 0  9994,2 53913  53.2173  83.4005 0001319  93.4385 266.6758 15.08848485 29675,6917.854,95.437,540.632,538.807,0.0
53913.0,STARLINK-5053,PAYLOAD,2023-04-04 04:11:07,15.08841036,0.0001304,53.2171,79.8312,91.5299,268.5842,0.00014978,2.097e-05,0.0,0 STARLINK-5053,1 53913U 22119AD  23094.17438815  .00002097  00000-0  14978-3 0  9991,2 53913  53.2171  79.8312 0001304  91.5299 268.5842 15.08841036 29793,6917.877,95.437,540.644,538.84,0.0
53913.0,STARLINK-5053,PAYLOAD,2023-04-04 10:32:39,15.0884866,0.0001262,53.217,78.6434,84.8009,275.3127,0.00020449,2.969e-05,0.0,0 STARLINK-5053,1 53913U 22119AD  23094.43934386  .00002969  00000-0  20449-3 0  9992,2 53913  53.2170  78.6434 0001262  84.8009 275.3127 15.08848660 30256,6917.854,95.437,540.592,538.846,0.0
53913.0,STARLINK-5053,PAYLOAD,2023-04-05 04:01:54,15.08840826,0.0001412,53.2171,75.3711,97.042,263.0732,9.5371e-05,1.23e-05,0.0,0 STARLINK-5053,1 53913U 22119AD  23095.16798766  .00001230  00000-0  95371-4 0  9990,2 53913  53.2171  75.3711 0001412  97.0420 263.0732 15.08840826 29945,6917.878,95.438,540.72,538.766,0.0
53913.0,STARLINK-5053,PAYLOAD,2023-04-05 08:48:03,15.08846785,0.0001372,53.2173,74.4798,92.2666,267.8484,0.00019524,2.821e-05,0.0,0 STARLINK-5053,1 53913U 22119AD  23095.36670522  .00002821  00000-0  19524-3 0  9993,2 53913  53.2173  74.4798 0001372  92.2666 267.8484 15.08846785 30393,6917.86,95.437,540.674,538.776,0.0
53913.0,STARLINK-5053,PAYLOAD,2023-04-06 07:03:27,15.08845673,0.0001201,53.2173,70.3165,97.174,262.9388,0.00016271,2.303e-05,0.0,0 STARLINK-5053,1 53913U 22119AD  23096.29406605  .00002303  00000-0  16271-3 0  9996,2 53913  53.2173  70.3165 0001201  97.1740 262.9388 15.08845673 30118,6917.863,95.437,540.559,538.897,0.0
53913.0,STARLINK-5053,PAYLOAD,2023-04-07 02:08:05,15.08836651,0.0001376,53.2183,66.7501,106.7294,253.3849,-0.00010114,-1.897e-05,0.0,0 STARLINK-5053,1 53913U 22119AD  23097.08895180 -.00001897  00000-0 -10114-3 0  9993,2 53913  53.2183  66.7501 0001376 106.7294 253.3849 15.08836651 30231,6917.891,95.438,540.708,538.804,0.0
53913.0,STARLINK-5053,PAYLOAD,2023-04-07 08:29:37,15.08839218,0.0001246,53.218,65.559,96.052,264.0614,8.2916e-05,1.032e-05,0.0,0 STARLINK-5053,1 53913U 22119AD  23097.35391027  .00001032  00000-0  82916-4 0  9993,2 53913  53.2180  65.5590 0001246  96.0520 264.0614 15.08839218 30693,6917.883,95.438,540.61,538.886,0.0
53913.0,STARLINK-5053,PAYLOAD,2023-04-08 06:45:02,15.0882753,0.0001358,53.2182,61.3958,99.3962,260.7184,0.00069644,0.00010809,0.0,0 STARLINK-5053,1 53913U 22119AD  23098.28128150  .00010809  00000-0  69644-3 0  9995,2 53913  53.2182  61.3958 0001358  99.3962 260.7184 15.08827530 30416,6917.919,95.438,540.723,538.844,0.0
53913.0,STARLINK-5053,PAYLOAD,2023-04-09 06:35:49,15.08844442,0.0001276,53.218,56.935,95.5013,264.6125,0.00015527,2.184e-05,0.0,0 STARLINK-5053,1 53913U 22119AD  23099.27487322  .00002184  00000-0  15527-3 0  9992,2 53913  53.2180  56.9350 0001276  95.5013 264.6125 15.08844442 30985,6917.867,95.437,540.615,538.849,0.0
53913.0,STARLINK-5053,PAYLOAD,2023-04-10 03:15:49,15.08845632,0.0001344,53.2185,53.0699,93.4995,266.615,9.2341e-05,1.182e-05,0.0,0 STARLINK-5053,1 53913U 22119AD  23100.13599259  .00001182  00000-0  92341-4 0  9990,2 53913  53.2185  53.0699 0001344  93.4995 266.6150 15.08845632 30696,6917.863,95.437,540.658,538.798,0.0
53913.0,STARLINK-5053,PAYLOAD,2023-04-10 06:26:35,15.08848719,0.0001268,53.2186,52.4741,101.2055,258.908,0.00013588,1.876e-05,0.0,0 STARLINK-5053,1 53913U 22119AD  23100.26847051  .00001876  00000-0  13588-3 0  9995,2 53913  53.2186  52.4741 0001268 101.2055 258.9080 15.08848719 31133,6917.854,95.437,540.596,538.842,0.0
53913.0,STARLINK-5053,PAYLOAD,2023-04-11 06:17:22,15.08848468,0.0001399,53.2184,48.0132,103.4753,256.6395,0.00013951,1.934e-05,0.0,0 STARLINK-5053,1 53913U 22119AD  23101.26206967  .00001934  00000-0  13951-3 0  9990,2 53913  53.2184  48.0132 0001399 103.4753 256.6395 15.08848468 30864,6917.855,95.437,540.687,538.752,0.0
